NORAD_CAT_ID,OBJECT_NAME,OBJECT_TYPE,EPOCH,MEAN_MOTION,ECCENTRICITY,INCLINATION,RA_OF_ASC_NODE,ARG_OF_PERICENTER,MEAN_ANOMALY,BSTAR,MEAN_MOTION_DOT,MEAN_MOTION_DDOT,TLE_LINE0,TLE_LINE1,TLE_LINE2,SEMIMAJOR_AXIS,PERIOD,APOGEE,PERIGEE,DECAYED
51111.0,STARLINK-3173,PAYLOAD,2022-10-03 16:18:50,15.08854729,0.000151,53.2172,154.1034,59.2936,300.8205,0.00039696,6.038e-05,0.0,0 STARLINK-3173,1 51111U 22005H   22276.67974896  .00006038  00000-0  39696-3 0  9996,2 51111  53.2172 154.1034 0001510  59.2936 300.8205 15.08854729 39717,6917.835,95.437,540.745,538.656,0.0
51111.0,STARLINK-3173,PAYLOAD,2022-10-03 22:40:23,15.0883385,0.0001541,53.2173,152.9153,60.6968,299.4178,3.7063e-05,3.02e-06,0.0,0 STARLINK-3173,1 51111U 22005H   22276.94471686  .00000302  00000-0  37063-4 0  9990,2 51111  53.2173 152.9153 0001541  60.6968 299.4178 15.08833850 40863,6917.899,95.438,540.83,538.698,0.0
51111.0,STARLINK-3173,PAYLOAD,2022-10-04 01:51:08,15.08856998,0.0001435,53.2172,152.3204,59.6708,300.4426,0.00037055,5.617e-05,0.0,0 STARLINK-3173,1 51111U 22005H   22277.07718508  .00005617  00000-0  37055-3 0  9996,2 51111  53.2172 152.3204 0001435  59.6708 300.4426 15.08856998 40884,6917.828,95.436,540.686,538.701,0.0
51111.0,STARLINK-3173,PAYLOAD,2022-10-04 19:20:23,15.0885147,0.0001421,53.2172,149.048,83.3017,276.8137,0.00016189,2.29e-05,0.0,0 STARLINK-3173,1 51111U 22005H   22277.80582605  .00002290  00000-0  16189-3 0  9993,2 51111  53.2172 149.0480 0001421  83.3017 276.8137 15.08851470 40992,6917.845,95.437,540.693,538.727,0.0
51111.0,STARLINK-3173,PAYLOAD,2022-10-05 00:06:33,15.08835532,0.0001229,53.2166,148.154,39.8353,320.273,-0.00015615,-2.772e-05,0.0,0 STARLINK-3173,1 51111U 22005H   22278.00455120 -.00002772  00000-0 -15615-3 0  9997,2 51111  53.2166 148.1540 0001229  39.8353 320.2730 15.08835532 39911,6917.894,95.438,540.609,538.909,0.0
51111.0,STARLINK-3173,PAYLOAD,2022-10-06 03:08:06,15.08843498,0.0001463,53.2166,143.1023,54.9029,305.21,-0.00048451,-7.991e-05,0.0,0 STARLINK-3173,1 51111U 22005H   22279.13063060 -.00007991  00000-0 -48451-3 0  9992,2 51111  53.2166 143.1023 0001463  54.9029 305.2100 15.08843498 41197,6917.87,95.437,540.747,538.7230000000002,0.0
51111.0,STARLINK-3173,PAYLOAD,2022-10-06 07:54:18,15.08809709,0.0001476,53.2172,142.2091,45.8063,314.305,0.00054429,8.378e-05,0.0,0 STARLINK-3173,1 51111U 22005H   22279.32937516  .00008378  00000-0  54429-3 0  9999,2 51111  53.2172 142.2091 0001476  45.8063 314.3050 15.08809709 40113,6917.973000000001,95.439,540.859,538.817,0.0
51111.0,STARLINK-3173,PAYLOAD,2022-10-06 20:37:21,15.08839314,0.0001336,53.2169,139.8305,55.9086,304.2033,0.00037461,5.679e-05,0.0,0 STARLINK-3173,1 51111U 22005H   22279.85928166  .00005679  00000-0  37461-3 0  9996,2 51111  53.2169 139.8305 0001336  55.9086 304.2033 15.08839314 40193,6917.882,95.438,540.672,538.823,0.0
51111.0,STARLINK-3173,PAYLOAD,2022-10-07 07:45:03,15.08844461,0.0001159,53.2166,137.7502,57.9413,302.1692,0.00042891,6.546e-05,0.0,0 STARLINK-3173,1 51111U 22005H   22280.32296050  .00006546  00000-0  42891-3 0  9997,2 51111  53.2166 137.7502 0001159  57.9413 302.1692 15.08844461 41373,6917.8669999999975,95.437,540.534,538.93,0.0
51111.0,STARLINK-3173,PAYLOAD,2022-10-07 20:28:09,15.08839144,0.0001549,53.2165,135.3691,59.9301,300.1845,0.00016059,2.269e-05,0.0,0 STARLINK-3173,1 51111U 22005H   22280.85288352  .00002269  00000-0  16059-3 0  9996,2 51111  53.2165 135.3691 0001549  59.9301 300.1845 15.08839144 41455,6917.8830000000025,95.438,540.82,538.6759999999998,0.0
51111.0,STARLINK-3173,PAYLOAD,2022-10-08 07:35:51,15.08837588,0.0001601,53.2171,133.2879,58.2476,301.8672,0.00015875,2.239e-05,0.0,0 STARLINK-3173,1 51111U 22005H   22281.31656581  .00002239  00000-0  15875-3 0  9993,2 51111  53.2171 133.2879 0001601  58.2476 301.8672 15.08837588 40412,6917.888000000001,95.438,540.86,538.645,0.0
51111.0,STARLINK-3173,PAYLOAD,2022-10-08 20:18:56,15.08834306,0.0001541999999999,53.217,130.9091,61.1296,298.9851,-1.8415e-05,-5.81e-06,0.0,0 STARLINK-3173,1 51111U 22005H   22281.84648949 -.00000581  00000-0 -18415-4 0  9994,2 51111  53.2170 130.9091 0001542  61.1296 298.9851 15.08834306 41600,6917.898,95.438,540.83,538.696,0.0
51111.0,STARLINK-3173,PAYLOAD,2022-10-09 07:26:38,15.08842342,0.0001482,53.2177,128.8274,59.1087,301.005,1.5938e-06,-2.63e-06,0.0,0 STARLINK-3173,1 51111U 22005H   22282.31016757 -.00000263  00000-0  15938-5 0  9997,2 51111  53.2177 128.8274 0001482  59.1087 301.0050 15.08842342 40564,6917.873000000001,95.437,540.763,538.7130000000002,0.0
51111.0,STARLINK-3173,PAYLOAD,2022-10-09 20:09:43,15.08844557,0.0001659,53.2186,126.4486,53.648,306.4665,0.00013008,1.783e-05,0.0,0 STARLINK-3173,1 51111U 22005H   22282.84008264  .00001783  00000-0  13008-3 0  9990,2 51111  53.2186 126.4486 0001659  53.6480 306.4665 15.08844557 41758,6917.866,95.437,540.879,538.5840000000002,0.0
51111.0,STARLINK-3173,PAYLOAD,2022-10-09 20:09:44,15.08831614,0.0001581,53.2176,126.4485,58.3078,301.8068,-1.4512e-07,-2.9e-06,0.0,0 STARLINK-3173,1 51111U 22005H   22282.84009403 -.00000290  00000-0 -14512-6 0  9994,2 51111  53.2176 126.4485 0001581  58.3078 301.8068 15.08831614 40648,6917.906,95.438,540.865,538.677,0.0
51111.0,STARLINK-3173,PAYLOAD,2022-10-10 00:55:53,15.08836232,0.000158,53.2177,125.5565,58.97,301.1447,3.94e-05,3.39e-06,0.0,0 STARLINK-3173,1 51111U 22005H   22283.03881096  .00000339  00000-0  39400-4 0  9995,2 51111  53.2177 125.5565 0001580  58.9700 301.1447 15.08836232 41786,6917.892,95.438,540.85,538.664,0.0
51111.0,STARLINK-3173,PAYLOAD,2022-10-10 07:17:25,15.08842127,0.0001601,53.2178,124.3672,59.2951,300.8199,7.319399999999999e-05,8.77e-06,0.0,0 STARLINK-3173,1 51111U 22005H   22283.30376698  .00000877  00000-0  73194-4 0  9997,2 51111  53.2178 124.3672 0001601  59.2951 300.8199 15.08842127 40711,6917.874,95.437,540.846,538.631,0.0
51111.0,STARLINK-3173,PAYLOAD,2022-10-10 20:00:30,15.08839832,0.0001374,53.2163,121.988,51.3426,308.7689,0.0001638,2.32e-05,0.0,0 STARLINK-3173,1 51111U 22005H   22283.83368931  .00002320  00000-0  16380-3 0  9994,2 51111  53.2163 121.9880 0001374  51.3426 308.7689 15.08839832 40794,6917.880999999999,95.438,540.696,538.795,0.0
51111.0,STARLINK-3173,PAYLOAD,2022-10-10 23:11:17,15.08837549,0.0001406,53.2168,121.3936,57.5442,302.5686,0.00014279,1.985e-05,0.0,0 STARLINK-3173,1 51111U 22005H   22283.96617084  .00001985  00000-0  14279-3 0  9995,2 51111  53.2168 121.3936 0001406  57.5442 302.5686 15.08837549 40812,6917.888000000001,95.438,540.726,538.78,0.0
51111.0,STARLINK-3173,PAYLOAD,2022-10-11 15:05:08,15.08831323,0.0001558,53.2168,118.4199,53.8356,306.278,-7.111199999999999e-05,-1.419e-05,0.0,0 STARLINK-3173,1 51111U 22005H   22284.62857608 -.00001419  00000-0 -71112-4 0  9991,2 51111  53.2168 118.4199 0001558  53.8356 306.2780 15.08831323 42026,6917.906999999997,95.438,540.85,538.694,0.0
51111.0,STARLINK-3173,PAYLOAD,2022-10-12 05:23:37,15.08836444,0.0001639,53.2181,115.7444,57.4842,302.6308,0.00012777,1.746e-05,0.0,0 STARLINK-3173,1 51111U 22005H   22285.22473469  .00001746  00000-0  12777-3 0  9999,2 51111  53.2181 115.7444 0001639  57.4842 302.6308 15.08836444 42119,6917.891,95.438,540.89,538.622,0.0
51111.0,STARLINK-3173,PAYLOAD,2022-10-12 13:20:33,15.08835789,0.0001585999999999,53.2184,114.258,52.783,307.3307,4.1094e-05,3.66e-06,0.0,0 STARLINK-3173,1 51111U 22005H   22285.55593782  .00000366  00000-0  41094-4 0  9998,2 51111  53.2184 114.2580 0001586  52.7830 307.3307 15.08835789 41057,6917.893,95.438,540.855,538.661,0.0
51111.0,STARLINK-3173,PAYLOAD,2022-10-12 19:42:05,15.08834504,0.0001521999999999,53.2183,113.0684,50.8965,309.2163,-2.0347e-06,-3.2e-06,0.0,0 STARLINK-3173,1 51111U 22005H   22285.82090034 -.00000320  00000-0 -20347-5 0  9991,2 51111  53.2183 113.0684 0001522  50.8965 309.2163 15.08834504 41095,6917.897,95.438,540.815,538.7090000000002,0.0
51111.0,STARLINK-3173,PAYLOAD,2022-10-13 05:14:24,15.08836211,0.000158,53.2184,111.284,57.8918,302.2227,9.6613e-05,1.25e-05,0.0,0 STARLINK-3173,1 51111U 22005H   22286.21833869  .00001250  00000-0  96613-4 0  9995,2 51111  53.2184 111.2840 0001580  57.8918 302.2227 15.08836211 41157,6917.892,95.438,540.85,538.664,0.0
51111.0,STARLINK-3173,PAYLOAD,2022-10-13 19:32:52,15.08845677,0.0001474,53.2184,108.6076,50.6738,309.4385,0.0001438,2.002e-05,0.0,0 STARLINK-3173,1 51111U 22005H   22286.81449253  .00002002  00000-0  14380-3 0  9997,2 51111  53.2184 108.6076 0001474  50.6738 309.4385 15.08845677 41241,6917.863,95.437,540.748,538.7080000000002,0.0
51111.0,STARLINK-3173,PAYLOAD,2022-10-14 00:19:01,15.08848592,0.0001450999999999,53.2184,107.7148,57.5024,302.6109,0.00017881,2.56e-05,0.0,0 STARLINK-3173,1 51111U 22005H   22287.01321004  .00002560  00000-0  17881-3 0  9991,2 51111  53.2184 107.7148 0001451  57.5024 302.6109 15.08848592 41271,6917.854,95.437,540.7230000000002,538.715,0.0
51111.0,STARLINK-3173,PAYLOAD,2022-10-14 14:37:29,15.08841895,0.0001626999999999,53.218,105.0386,54.1684,305.9459,0.00017437,2.488e-05,0.0,0 STARLINK-3173,1 51111U 22005H   22287.60937455  .00002488  00000-0  17437-3 0  9995,2 51111  53.2180 105.0386 0001627  54.1684 305.9459 15.08841895 41365,6917.875,95.437,540.865,538.614,0.0
51111.0,STARLINK-3173,PAYLOAD,2022-10-15 00:09:49,15.08828155,0.000166,53.2176,103.2543,59.0602,301.0553,0.00029015,4.331e-05,0.0,0 STARLINK-3173,1 51111U 22005H   22288.00682199  .00004331  00000-0  29015-3 0  9996,2 51111  53.2176 103.2543 0001660  59.0602 301.0553 15.08828155 42532,6917.917,95.438,540.93,538.633,0.0
51111.0,STARLINK-3173,PAYLOAD,2022-10-15 04:55:58,15.0883764,0.000166,53.2185,102.3624,57.1029,303.0122,7.586e-05,9.19e-06,0.0,0 STARLINK-3173,1 51111U 22005H   22288.20553899  .00000919  00000-0  75860-4 0  9990,2 51111  53.2185 102.3624 0001660  57.1029 303.0122 15.08837640 41457,6917.888000000001,95.438,540.901,538.604,0.0
